SINOD-D 3               
1 40977U 15058P   26068.81223977  .00006149  00000+0  52531-3 0  9995
2 40977  64.7724 225.9436 0118521  98.0775 263.3804 14.93212807 99915
STARLINK-6299           
1 57358U 23099AG  26068.48685217  .00000578  00000+0  57893-4 0  9999
2 57358  43.0028 237.2503 0001472 267.4700  92.5973 15.02537302146979
